25851,GLOBALSTAR M035,1999,130.37,-1.0,-,52.0,Inactive,0,MEO,USA,Globalstar,Unknown,Unknown,Unknown,1 25851U 99037A   24357.56344788 -.00000062  00000+0  53175-4 0  9998,2 25851  51.9957  88.8513 0013976  59.8236  19.4985 11.04535440 76748,11.0453544,0.0013976,MEO
25852,GLOBALSTAR M032,1999,128.68,-1.0,-,52.0,Inactive,0,MEO,USA,Globalstar,Unknown,Unknown,Unknown,1 25852U 99037B   24357.29243325 -.00000071  00000+0 -13340-3 0  9994,2 25852  51.9966 286.8581 0010194 231.6399 128.3485 11.19055082114982,11.19055082,0.0010194,MEO
25853,GLOBALSTAR M051,1999,126.07,-1.0,-,51.98,Inactive,0,LEO,USA,Globalstar,Unknown,Unknown,Unknown,1 25853U 99037C   24357.54146311 -.00000059  00000+0  31487-3 0  9997,2 25853  51.9787 107.0262 0000790 196.4378 163.6407 11.42199785112204,11.42199785,7.9e-05,LEO
25854,GLOBALSTAR M030,1999,124.66,-1.0,-,51.99,Inactive,0,LEO,USA,Globalstar,Unknown,Unknown,Unknown,1 25854U 99037D   24357.20685172 -.00000062  00000+0  27618-3 0  9999,2 25854  51.9889 285.1946 0004204  84.9600 275.1696 11.55100866129593,11.55100866,0.0004204,LEO
25872,GLOBALSTAR M048,1999,127.0,-1.0,-,51.94,Inactive,0,LEO,USA,Globalstar,Unknown,Unknown,Unknown,1 25872U 99041A   24357.46913281 -.00000069  00000+0  38014-4 0  9997,2 25872  51.9395  35.4036 0013332 237.1946 266.8208 11.33852559104934,11.33852559,0.0013332,LEO
25873,GLOBALSTAR M026,1999,130.1,-1.0,-,52.0,Inactive,0,MEO,USA,Globalstar,Unknown,Unknown,Unknown,1 25873U 99041B   24357.58616587  .00000000  00000+0  23739-2 0  9990,2 25873  51.9972 208.6190 0001363   9.6465  31.8587 11.06825175128930,11.06825175,0.0001363,MEO
25874,GLOBALSTAR M043,1999,127.92,-1.0,-,51.94,Inactive,0,LEO,USA,Globalstar,Unknown,Unknown,Unknown,1 25874U 99041C   24357.56532618 -.00000052  00000+0  48205-3 0  9995,2 25874  51.9378 135.7799 0013024  15.4910  63.6695 11.25688867102989,11.25688867,0.0013024,LEO
25875,GLOBALSTAR M028,1999,115.15,-1.0,-,51.96,Inactive,0,LEO,USA,Globalstar,Unknown,Unknown,Unknown,1 25875U 99041D   24357.44022519  .00000000  00000+0  65272-3 0  9992,2 25875  51.9644   0.0907 0063500  47.7143 312.9077 12.50573131168062,12.50573131,0.00635,LEO
